[{"OBJECT_NAME":"HAIYANG 4-01","OBJECT_ID":"2024-208A","EPOCH":"2026-03-09T23:12:53.957952","MEAN_MOTION":14.73328674,"ECCENTRICITY":0.00022294,"INCLINATION":98.0072,"RA_OF_ASC_NODE":78.0681,"ARG_OF_PERICENTER":108.1992,"MEAN_ANOMALY":251.9459,"EPHEMERIS_TYPE":0,"CLASSIFICATION_TYPE":"U","NORAD_CAT_ID":61936,"ELEMENT_SET_NO":999,"REV_AT_EPOCH":7083,"BSTAR":0.00012921781,"MEAN_MOTION_DOT":7.86e-6,"MEAN_MOTION_DDOT":0},{"OBJECT_NAME":"COSMOS 2251 DEB","OBJECT_ID":"1993-036AJS","EPOCH":"2026-03-05T17:31:04.132416","MEAN_MOTION":14.66624828,"ECCENTRICITY":0.00367071,"INCLINATION":73.9508,"RA_OF_ASC_NODE":214.4295,"ARG_OF_PERICENTER":64.1471,"MEAN_ANOMALY":296.3475,"EPHEMERIS_TYPE":0,"CLASSIFICATION_TYPE":"U","NORAD_CAT_ID":35288,"ELEMENT_SET_NO":999,"REV_AT_EPOCH":89094,"BSTAR":0.0017191419,"MEAN_MOTION_DOT":9.632e-5,"MEAN_MOTION_DDOT":0}]
